VELA 2                   Age = -0.06
1 00674U 63039A   22019.81245765  .00000049  00000-0  00000-0 0  9993
2 00674  41.1836 137.0320 2277055 113.3538   0.5982  0.22203417  5808
OPS 3662 (VELA 3)        Age = -0.28
1 00836U 64040A   22020.03521538 -.00000013  00000-0  00000-0 0  9999
2 00836  32.5087 165.9408 7764449 309.3174 359.2818  0.23902447  7155
SOLRAD 11A               Age = -2.78
1 08748U 76023C   22022.53874948 -.00000701  00000-0  00000-0 0  9990
2 08748  24.4234 333.8462 0113691 108.6058  10.0876  0.19675560  2302
SOLRAD 11A/B AKM         Age = -0.89
1 08753U 76023H   22020.64808186 -.00000707  00000-0  00000-0 0  9993
2 08753  25.2122 326.6743 0381454  59.9430   0.0966  0.18716878  2408
ASTRON                   Age = -1.72
1 13901U 83020A   22021.47016999  .00000005  00000-0  00000-0 0  9994
2 13901  67.8312  71.8359 7357752 357.6751   1.7463  0.24301996  7244
GEOTAIL                  Age = -5.33
1 22049U 92044A   22025.08631128 -.00000503  00000-0  00000+0 0  9994
2 22049  43.5347  39.1674 4988382 192.6249   1.3810  0.19221029 12675
CXO                      Age = -0.21
1 25867U 99040B   22019.95968920  .00000572  00000-0  00000-0 0  9996
2 25867  49.5058 244.8627 8640971 229.3121   0.2717  0.37808965 11239
CLUSTER II-FM7 (SAMBA)   Age = -2.10
1 26410U 00041A   22021.85377892  .00000319  00000-0  00000+0 0  9996
2 26410 133.5716 346.3875 5328636 196.5453 359.0262  0.44195354 24922
CLUSTER II-FM6 (SALSA)   Age = -2.09
1 26411U 00041B   22021.84516702  .00000461  00000-0  00000+0 0  9999
2 26411 135.1189 349.0602 6924884 201.0912 358.9506  0.44215103 24231
CLUSTER II-FM5 (RUMBA)   Age = -2.10
1 26463U 00045A   22021.84931511  .00000514  00000-0  00000+0 0  9998
2 26463 138.7156 349.2581 6454275 201.7168 359.0087  0.44215286 25500
CLUSTER II-FM8 (TANGO)   Age = -2.10
1 26464U 00045B   22021.85260332  .00000319  00000-0  00000+0 0  9999
2 26464 133.5784 346.3815 5325314 196.5506 359.0082  0.44219309 60847
SL-6 R/B(2)              Age = -0.76
1 32705U 77093E   22020.51796598  .00000279  00000-0  00000-0 0  9997
2 32705  34.0044 220.1613 8806363 265.9642 359.4750  0.25811128  7690
YZ-1 R/B                 Age = -3.12
1 41929U 15019C   22022.87449636 -.00000064  00000-0  00000-0 0  9997
2 41929  21.5847 224.2169 4759811 151.0921 359.5870  0.27910879  6291
